{
  "norad_id": 63808,
  "name": "STARLINK-34091",
  "history": [
    {
      "epoch": "2026-03-28T09:25:10.378272",
      "apogee_km": 483.8537140333028,
      "perigee_km": 482.23406367267944,
      "latitude_deg": -38.90235678397746,
      "longitude_deg": -121.5218019199092,
      "semi_major_axis_km": 6861.18088885299,
      "eccentricity": 0.00011803,
      "inclination_deg": 43.0015,
      "raan_deg": 67.0445,
      "arg_perigee_deg": 270.7073,
      "mean_anomaly_deg": 89.3643,
      "mean_motion_rev_day": 15.27581739
    }
  ]
}