{"fetched_at":"2026-03-29T02:12:04Z","count":15717,"tles":[{"name":"STARLINK-34091","line1":"1 63808U 25092E   26087.39248123  .00017713  00000+0  65163-3 0  9990","line2":"2 63808  43.0015  67.0445 0001180 270.7073  89.3643 15.27581739 51526","category":"Starlink"}]}